{
  "norad_id": 67335,
  "name": "STARLINK-36486",
  "history": [
    {
      "epoch": "2026-03-28T10:27:17.002944Z",
      "apogee_km": 483.98211667258147,
      "perigee_km": 482.01667554055257,
      "latitude_deg": 2.157981973139318e-05,
      "longitude_deg": 138.27828144829897,
      "height_km": 482.72876216285476,
      "semi_major_axis_km": 6861.136396106567,
      "eccentricity": 0.00014323,
      "inclination_deg": 43.0019,
      "raan_deg": 120.9552,
      "arg_perigee_deg": 272.7749,
      "mean_anomaly_deg": 87.2939,
      "mean_motion_rev_day": 15.27596598
    }
  ]
}